CCSDS_OMM_VERS = 2.0
CREATION_DATE  = 
ORIGINATOR     = 

OBJECT_NAME    = SL-16 R/B
OBJECT_ID      = 1998-043G
CENTER_NAME    = EARTH
REF_FRAME      = TEME
TIME_SYSTEM    = UTC
MEAN_ELEMENT_THEORY = SGP/SGP4

EPOCH          = 2025-12-04T02:21:04.080096
MEAN_MOTION    = 14.26022314
ECCENTRICITY   = .0008898
INCLINATION    = 98.8110
RA_OF_ASC_NODE = 285.8681
ARG_OF_PERICENTER = 294.7059
MEAN_ANOMALY   = 65.3193

EPHEMERIS_TYPE = 0
CLASSIFICATION_TYPE = U
NORAD_CAT_ID   = 25400
ELEMENT_SET_NO = 999
REV_AT_EPOCH   = 42536
BSTAR          = .85258E-4
MEAN_MOTION_DOT = .158E-5
MEAN_MOTION_DDOT = 0

CCSDS_OMM_VERS = 2.0
CREATION_DATE  = 
ORIGINATOR     = 

OBJECT_NAME    = SL-16 R/B
OBJECT_ID      = 1998-045B
CENTER_NAME    = EARTH
REF_FRAME      = TEME
TIME_SYSTEM    = UTC
MEAN_ELEMENT_THEORY = SGP/SGP4

EPOCH          = 2025-12-04T03:32:13.530048
MEAN_MOTION    = 14.16175637
ECCENTRICITY   = .0007421
INCLINATION    = 71.0125
RA_OF_ASC_NODE = 22.4965
ARG_OF_PERICENTER = 190.2038
MEAN_ANOMALY   = 169.8936

EPHEMERIS_TYPE = 0
CLASSIFICATION_TYPE = U
NORAD_CAT_ID   = 25407
ELEMENT_SET_NO = 999
REV_AT_EPOCH   = 41357
BSTAR          = .76104E-4
MEAN_MOTION_DOT = .103E-5
MEAN_MOTION_DDOT = 0

CCSDS_OMM_VERS = 2.0
CREATION_DATE  = 
ORIGINATOR     = 

OBJECT_NAME    = ISS (ZARYA)
OBJECT_ID      = 1998-067A
CENTER_NAME    = EARTH
REF_FRAME      = TEME
TIME_SYSTEM    = UTC
MEAN_ELEMENT_THEORY = SGP/SGP4

EPOCH          = 2025-12-03T21:33:39.276864
MEAN_MOTION    = 15.49284650
ECCENTRICITY   = .0003592
INCLINATION    = 51.6303
RA_OF_ASC_NODE = 186.2514
ARG_OF_PERICENTER = 201.3576
MEAN_ANOMALY   = 158.7263

EPHEMERIS_TYPE = 0
CLASSIFICATION_TYPE = U
NORAD_CAT_ID   = 25544
ELEMENT_SET_NO = 999
REV_AT_EPOCH   = 54148
BSTAR          = .25253E-3
MEAN_MOTION_DOT = .13627E-3
MEAN_MOTION_DDOT = 0

CCSDS_OMM_VERS = 2.0
CREATION_DATE  = 
ORIGINATOR     = 

OBJECT_NAME    = CZ-4B R/B
OBJECT_ID      = 1999-025C
CENTER_NAME    = EARTH
REF_FRAME      = TEME
TIME_SYSTEM    = UTC
MEAN_ELEMENT_THEORY = SGP/SGP4

EPOCH          = 2025-12-04T03:26:00.790080
MEAN_MOTION    = 14.18240579
ECCENTRICITY   = .0036127
INCLINATION    = 98.6779
RA_OF_ASC_NODE = 19.6149
ARG_OF_PERICENTER = 259.4053
MEAN_ANOMALY   = 166.4282

EPHEMERIS_TYPE = 0
CLASSIFICATION_TYPE = U
NORAD_CAT_ID   = 25732
ELEMENT_SET_NO = 999
REV_AT_EPOCH   = 37462
BSTAR          = .11628E-3
MEAN_MOTION_DOT = .197E-5
MEAN_MOTION_DDOT = 0

CCSDS_OMM_VERS = 2.0
CREATION_DATE  = 
ORIGINATOR     = 

OBJECT_NAME    = OKEAN-O
OBJECT_ID      = 1999-039A
CENTER_NAME    = EARTH
REF_FRAME      = TEME
TIME_SYSTEM    = UTC
MEAN_ELEMENT_THEORY = SGP/SGP4

EPOCH          = 2025-12-03T17:32:31.958016
MEAN_MOTION    = 14.80135686
ECCENTRICITY   = .00008074
INCLINATION    = 97.9616
RA_OF_ASC_NODE = 33.5100
ARG_OF_PERICENTER = 77.9819
MEAN_ANOMALY   = 282.1484

EPHEMERIS_TYPE = 0
CLASSIFICATION_TYPE = U
NORAD_CAT_ID   = 25860
ELEMENT_SET_NO = 999
REV_AT_EPOCH   = 42019
BSTAR          = .16084303E-3
MEAN_MOTION_DOT = .1168E-4
MEAN_MOTION_DDOT = 0

CCSDS_OMM_VERS = 2.0
CREATION_DATE  = 
ORIGINATOR     = 

OBJECT_NAME    = SL-16 R/B
OBJECT_ID      = 1999-039B
CENTER_NAME    = EARTH
REF_FRAME      = TEME
TIME_SYSTEM    = UTC
MEAN_ELEMENT_THEORY = SGP/SGP4

EPOCH          = 2025-12-03T17:37:55.541568
MEAN_MOTION    = 14.81565116
ECCENTRICITY   = .0014256
INCLINATION    = 98.0139
RA_OF_ASC_NODE = 31.8849
ARG_OF_PERICENTER = 204.2676
MEAN_ANOMALY   = 155.7866

EPHEMERIS_TYPE = 0
CLASSIFICATION_TYPE = U
NORAD_CAT_ID   = 25861
ELEMENT_SET_NO = 999
REV_AT_EPOCH   = 42265
BSTAR          = .13931056E-3
MEAN_MOTION_DOT = .1041E-4
MEAN_MOTION_DDOT = 0

CCSDS_OMM_VERS = 2.0
CREATION_DATE  = 
ORIGINATOR     = 

OBJECT_NAME    = DELTA 2 R/B
OBJECT_ID      = 1999-041E
CENTER_NAME    = EARTH
REF_FRAME      = TEME
TIME_SYSTEM    = UTC
MEAN_ELEMENT_THEORY = SGP/SGP4

EPOCH          = 2025-12-03T17:17:29.693184
MEAN_MOTION    = 14.11363114
ECCENTRICITY   = .05048251
INCLINATION    = 51.7623
RA_OF_ASC_NODE = 324.4495
ARG_OF_PERICENTER = 65.1848
MEAN_ANOMALY   = 300.0717

EPHEMERIS_TYPE = 0
CLASSIFICATION_TYPE = U
NORAD_CAT_ID   = 25876
ELEMENT_SET_NO = 999
REV_AT_EPOCH   = 34947
BSTAR          = .33173207E-3
MEAN_MOTION_DOT = .1816E-4
MEAN_MOTION_DDOT = 0

CCSDS_OMM_VERS = 2.0
CREATION_DATE  = 
ORIGINATOR     = 

OBJECT_NAME    = HELIOS 1B
OBJECT_ID      = 1999-064A
CENTER_NAME    = EARTH
REF_FRAME      = TEME
TIME_SYSTEM    = UTC
MEAN_ELEMENT_THEORY = SGP/SGP4

EPOCH          = 2025-12-04T02:59:17.263968
MEAN_MOTION    = 14.87225607
ECCENTRICITY   = .0002152
INCLINATION    = 98.1755
RA_OF_ASC_NODE = 232.5346
ARG_OF_PERICENTER = 54.2268
MEAN_ANOMALY   = 305.9147

EPHEMERIS_TYPE = 0
CLASSIFICATION_TYPE = U
NORAD_CAT_ID   = 25977
ELEMENT_SET_NO = 999
REV_AT_EPOCH   = 67105
BSTAR          = .50407E-3
MEAN_MOTION_DOT = .4482E-4
MEAN_MOTION_DDOT = 0

CCSDS_OMM_VERS = 2.0
CREATION_DATE  = 
ORIGINATOR     = 

OBJECT_NAME    = TERRA
OBJECT_ID      = 1999-068A
CENTER_NAME    = EARTH
REF_FRAME      = TEME
TIME_SYSTEM    = UTC
MEAN_ELEMENT_THEORY = SGP/SGP4

EPOCH          = 2025-12-03T22:05:08.452608
MEAN_MOTION    = 14.60937035
ECCENTRICITY   = .00034241
INCLINATION    = 97.9761
RA_OF_ASC_NODE = 29.9277
ARG_OF_PERICENTER = 115.5396
MEAN_ANOMALY   = 58.1773

EPHEMERIS_TYPE = 0
CLASSIFICATION_TYPE = U
NORAD_CAT_ID   = 25994
ELEMENT_SET_NO = 999
REV_AT_EPOCH   = 38109
BSTAR          = .2141E-3
MEAN_MOTION_DOT = .1004E-4
MEAN_MOTION_DDOT = 0

CCSDS_OMM_VERS = 2.0
CREATION_DATE  = 
ORIGINATOR     = 

OBJECT_NAME    = SL-16 R/B
OBJECT_ID      = 2000-006B
CENTER_NAME    = EARTH
REF_FRAME      = TEME
TIME_SYSTEM    = UTC
MEAN_ELEMENT_THEORY = SGP/SGP4

EPOCH          = 2025-12-04T03:18:44.647200
MEAN_MOTION    = 14.15808385
ECCENTRICITY   = .0018013
INCLINATION    = 71.0028
RA_OF_ASC_NODE = 298.7435
ARG_OF_PERICENTER = 320.6162
MEAN_ANOMALY   = 39.3650

EPHEMERIS_TYPE = 0
CLASSIFICATION_TYPE = U
NORAD_CAT_ID   = 26070
ELEMENT_SET_NO = 999
REV_AT_EPOCH   = 33503
BSTAR          = .18504E-3
MEAN_MOTION_DOT = .316E-5
MEAN_MOTION_DDOT = 0

CCSDS_OMM_VERS = 2.0
CREATION_DATE  = 
ORIGINATOR     = 

OBJECT_NAME    = TITAN 4B R/B
OBJECT_ID      = 2000-047B
CENTER_NAME    = EARTH
REF_FRAME      = TEME
TIME_SYSTEM    = UTC
MEAN_ELEMENT_THEORY = SGP/SGP4

EPOCH          = 2025-12-03T22:13:11.903808
MEAN_MOTION    = 15.08677148
ECCENTRICITY   = .00396433
INCLINATION    = 67.9897
RA_OF_ASC_NODE = 309.6070
ARG_OF_PERICENTER = 155.1109
MEAN_ANOMALY   = 205.1963

EPHEMERIS_TYPE = 0
CLASSIFICATION_TYPE = U
NORAD_CAT_ID   = 26474
ELEMENT_SET_NO = 999
REV_AT_EPOCH   = 37846
BSTAR          = .43560739E-3
MEAN_MOTION_DOT = .684E-4
MEAN_MOTION_DDOT = 0

CCSDS_OMM_VERS = 2.0
CREATION_DATE  = 
ORIGINATOR     = 

OBJECT_NAME    = ENVISAT
OBJECT_ID      = 2002-009A
CENTER_NAME    = EARTH
REF_FRAME      = TEME
TIME_SYSTEM    = UTC
MEAN_ELEMENT_THEORY = SGP/SGP4

EPOCH          = 2025-12-03T20:46:34.236192
MEAN_MOTION    = 14.38994215
ECCENTRICITY   = .0001152
INCLINATION    = 98.3586
RA_OF_ASC_NODE = 288.8317
ARG_OF_PERICENTER = 81.9793
MEAN_ANOMALY   = 336.4587

EPHEMERIS_TYPE = 0
CLASSIFICATION_TYPE = U
NORAD_CAT_ID   = 27386
ELEMENT_SET_NO = 999
REV_AT_EPOCH   = 24539
BSTAR          = .10686747E-3
MEAN_MOTION_DOT = .287E-5
MEAN_MOTION_DDOT = 0

